NORAD_CAT_ID,OBJECT_NAME,OBJECT_TYPE,EPOCH,MEAN_MOTION,ECCENTRICITY,INCLINATION,RA_OF_ASC_NODE,ARG_OF_PERICENTER,MEAN_ANOMALY,BSTAR,MEAN_MOTION_DOT,MEAN_MOTION_DDOT,TLE_LINE0,TLE_LINE1,TLE_LINE2,SEMIMAJOR_AXIS,PERIOD,APOGEE,PERIGEE,DECAYED
55922.0,STARLINK-5863,PAYLOAD,2023-11-26 19:55:04,14.98305494,0.0002947,69.9997,246.8869,260.9221,99.1604,-0.00039507,-4.801e-05,0.0,0 STARLINK-5863,1 55922U 23037J   23330.82991157 -.00004801  00000-0 -39507-3 0  9993,2 55922  69.9997 246.8869 0002947 260.9221  99.1604 14.98305494 38929,6950.269,96.109,574.182,570.085,0.0
55922.0,STARLINK-5863,PAYLOAD,2023-11-26 21:31:12,14.98303561,0.0002859,69.9998,246.7202,258.5098,101.574,-0.00041203,-5.002e-05,0.0,0 STARLINK-5863,1 55922U 23037J   23330.89667474 -.00005002  00000-0 -41203-3 0  9992,2 55922  69.9998 246.7202 0002859 258.5098 101.5740 14.98303561 38592,6950.275,96.109,574.127,570.153,0.0
55922.0,STARLINK-5863,PAYLOAD,2023-11-27 03:55:45,14.98304046,0.0002512,70.0007,246.0475,238.1193,121.9722,-0.00035746,-4.352e-05,0.0,0 STARLINK-5863,1 55922U 23037J   23331.16371651 -.00004352  00000-0 -35746-3 0  9994,2 55922  70.0007 246.0475 0002512 238.1193 121.9722 14.98304046 38637,6950.273,96.109,573.884,570.392,0.0
55922.0,STARLINK-5863,PAYLOAD,2023-11-27 21:33:12,14.98321706,0.0002505,70.002,244.1979,240.2138,119.8772,-0.00018522,-2.302e-05,0.0,0 STARLINK-5863,1 55922U 23037J   23331.89806544 -.00002302  00000-0 -18522-3 0  9994,2 55922  70.0020 244.1979 0002505 240.2138 119.8772 14.98321706 38740,6950.219,96.108,573.825,570.343,0.0
55922.0,STARLINK-5863,PAYLOAD,2023-11-28 02:21:36,14.98340044,0.0001631,70.0019,243.6944,264.4249,95.6724,-1.9332e-05,-3.23e-06,0.0,0 STARLINK-5863,1 55922U 23037J   23332.09833461 -.00000323  00000-0 -19332-4 0  9997,2 55922  70.0019 243.6944 0001631 264.4249  95.6724 14.98340044 39110,6950.162,96.106,573.16,570.893,0.0
55922.0,STARLINK-5863,PAYLOAD,2023-11-28 03:57:44,14.98329373,0.0002029,70.002,243.5269,245.757,114.3377,-0.0001592,-1.992e-05,0.0,0 STARLINK-5863,1 55922U 23037J   23332.16510258 -.00001992  00000-0 -15920-3 0  9992,2 55922  70.0020 243.5269 0002029 245.7570 114.3377 14.98329373 39128,6950.195,96.107,573.47,570.65,0.0
55922.0,STARLINK-5863,PAYLOAD,2023-11-28 19:59:04,14.98319608,0.0002703,69.9995,241.8365,252.5701,107.5162,0.00043943,5.153e-05,0.0,0 STARLINK-5863,1 55922U 23037J   23332.83268965  .00005153  00000-0  43943-3 0  9998,2 55922  69.9995 241.8365 0002703 252.5701 107.5162 14.98319608 39222,6950.225,96.108,573.969,570.211,0.0
55922.0,STARLINK-5863,PAYLOAD,2023-11-29 03:59:44,14.9832897,0.0002603,69.9999,240.9957,253.8738,106.2135,0.00049365,5.802e-05,0.0,0 STARLINK-5863,1 55922U 23037J   23333.16648408  .00005802  00000-0  49365-3 0  9994,2 55922  69.9999 240.9957 0002603 253.8738 106.2135 14.98328970 39279,6950.196,96.107,573.87,570.252,0.0
55922.0,STARLINK-5863,PAYLOAD,2023-11-29 20:01:05,14.98330853,0.0002236,70.0028,239.3165,237.3231,122.7712,9.0605e-05,9.88e-06,0.0,0 STARLINK-5863,1 55922U 23037J   23333.83409413  .00000988  00000-0  90605-4 0  9993,2 55922  70.0028 239.3165 0002236 237.3231 122.7712 14.98330853 39373,6950.19,96.107,573.609,570.501,0.0
55922.0,STARLINK-5863,PAYLOAD,2023-11-30 20:03:06,14.98335181,0.0002464,70.001,236.7897,246.1953,113.8948,-0.00010581,-1.355e-05,0.0,0 STARLINK-5863,1 55922U 23037J   23334.83549368 -.00001355  00000-0 -10581-3 0  9993,2 55922  70.0010 236.7897 0002464 246.1953 113.8948 14.98335181 39527,6950.177,96.107,573.754,570.329,0.0
55922.0,STARLINK-5863,PAYLOAD,2023-12-01 20:05:07,14.98331971,0.0002351,70.0003,234.2628,249.1879,110.9028,0.00010475,1.157e-05,0.0,0 STARLINK-5863,1 55922U 23037J   23335.83688689  .00001157  00000-0  10475-3 0  9994,2 55922  70.0003 234.2628 0002351 249.1879 110.9028 14.98331971 39675,6950.187,96.107,573.686,570.418,0.0
55922.0,STARLINK-5863,PAYLOAD,2023-12-01 21:41:15,14.98317581,0.0002397,70.0004,234.0938,261.0685,99.0203,0.00034378,4.01e-05,0.0,0 STARLINK-5863,1 55922U 23037J   23335.90364901  .00004010  00000-0  34378-3 0  9999,2 55922  70.0004 234.0938 0002397 261.0685  99.0203 14.98317581 39343,6950.231,96.108,573.762,570.43,0.0
55922.0,STARLINK-5863,PAYLOAD,2023-12-02 04:05:46,14.98342476,0.0002429,70.0014,233.4243,226.7251,133.3705,0.00020474,2.352e-05,0.0,0 STARLINK-5863,1 55922U 23037J   23336.17067562  .00002352  00000-0  20474-3 0  9991,2 55922  70.0014 233.4243 0002429 226.7251 133.3705 14.98342476 39721,6950.154,96.106,573.708,570.331,0.0
55922.0,STARLINK-5863,PAYLOAD,2023-12-02 20:07:08,14.98320448,0.0002477,70.0,231.7402,255.4337,104.6547,-6.8088e-05,-9.05e-06,0.0,0 STARLINK-5863,1 55922U 23037J   23336.83829700 -.00000905  00000-0 -68088-4 0  9992,2 55922  70.0000 231.7402 0002477 255.4337 104.6547 14.98320448 39822,6950.222,96.108,573.809,570.366,0.0
55922.0,STARLINK-5863,PAYLOAD,2023-12-02 21:43:16,14.98322481,0.0002336,69.9999,231.5711,243.8205,116.2714,-4.0063e-05,-5.71e-06,0.0,0 STARLINK-5863,1 55922U 23037J   23336.90505494 -.00000571  00000-0 -40063-4 0  9993,2 55922  69.9999 231.5711 0002336 243.8205 116.2714 14.98322481 39493,6950.216,96.107,573.705,570.458,0.0
55922.0,STARLINK-5863,PAYLOAD,2023-12-03 02:31:41,14.98313201,0.0002713,69.9993,231.0638,275.9405,84.1444,-2.8527e-05,-4.33e-06,0.0,0 STARLINK-5863,1 55922U 23037J   23337.10534265 -.00000433  00000-0 -28527-4 0  9992,2 55922  69.9993 231.0638 0002713 275.9405  84.1444 14.98313201 39524,6950.245,96.108,573.995,570.224,0.0
55922.0,STARLINK-5863,PAYLOAD,2023-12-03 20:09:10,14.98327165,0.0002457,70.0005,229.2152,267.0884,92.9994,-0.00015085,-1.892e-05,0.0,0 STARLINK-5863,1 55922U 23037J   23337.83970096 -.00001892  00000-0 -15085-3 0  9992,2 55922  70.0005 229.2152 0002457 267.0884  92.9994 14.98327165 39979,6950.202,96.107,573.774,570.359,0.0
55922.0,STARLINK-5863,PAYLOAD,2023-12-04 02:33:42,14.98329469,0.0002095,69.9997,228.5389,262.1854,97.9068,-0.00010924,-1.396e-05,0.0,0 STARLINK-5863,1 55922U 23037J   23338.10673875 -.00001396  00000-0 -10924-3 0  9994,2 55922  69.9997 228.5389 0002095 262.1854  97.9068 14.98329469 39674,6950.195,96.107,573.516,570.603,0.0
55922.0,STARLINK-5863,PAYLOAD,2023-12-05 02:35:41,14.98333893,0.0002419,69.999,226.0142,275.5427,84.5456,0.00027175,3.151e-05,0.0,0 STARLINK-5863,1 55922U 23037J   23339.10812438  .00003151  00000-0  27175-3 0  9990,2 55922  69.9990 226.0142 0002419 275.5427  84.5456 14.98333893 40166,6950.181,96.107,573.727,570.365,0.0
55922.0,STARLINK-5863,PAYLOAD,2023-12-06 02:37:43,14.98328007,0.0001981,70.0002,223.4915,283.0568,77.037,3.4552e-05,3.19e-06,0.0,0 STARLINK-5863,1 55922U 23037J   23340.10953516  .00000319  00000-0  34552-4 0  9996,2 55922  70.0002 223.4915 0001981 283.0568  77.0370 14.98328007 40315,6950.199,96.107,573.441,570.687,0.0
55922.0,STARLINK-5863,PAYLOAD,2023-12-07 01:03:36,14.98330727,0.0001978,70.0007,221.1341,305.5444,54.5531,-7.1047e-05,-9.4e-06,0.0,0 STARLINK-5863,1 55922U 23037J   23341.04417589 -.00000940  00000-0 -71047-4 0  9997,2 55922  70.0007 221.1341 0001978 305.5444  54.5531 14.98330727 40116,6950.191,96.107,573.43,570.681,0.0
55922.0,STARLINK-5863,PAYLOAD,2023-12-07 17:04:56,14.9832888,0.0002369,69.9992,219.4506,269.1485,90.9403,1.2411e-05,5.5e-07,0.0,0 STARLINK-5863,1 55922U 23037J   23341.71176930  .00000055  00000-0  12411-4 0  9998,2 55922  69.9992 219.4506 0002369 269.1485  90.9403 14.98328880 40551,6950.196,96.107,573.708,570.415,0.0
55922.0,STARLINK-5863,PAYLOAD,2023-12-09 02:43:45,14.98331788,0.0002368,69.9984,215.9175,289.978,70.1123,2.3857e-05,1.92e-06,0.0,0 STARLINK-5863,1 55922U 23037J   23343.11372066  .00000192  00000-0  23857-4 0  9990,2 55922  69.9984 215.9175 0002368 289.9780  70.1123 14.98331788 40765,6950.187,96.107,573.698,570.407,0.0
55922.0,STARLINK-5863,PAYLOAD,2023-12-09 13:56:44,14.98357238,0.0002129,69.9979,214.7334,241.5656,118.5289,-0.0013742,-0.00016462,0.0,0 STARLINK-5863,1 55922U 23037J   23343.58106688 -.00016462  00000-0 -13742-2 0  9995,2 55922  69.9979 214.7334 0002129 241.5656 118.5289 14.98357238 40492,6950.109,96.105,573.453,570.494,0.0
55922.0,STARLINK-5863,PAYLOAD,2023-12-10 18:47:07,14.98317808,0.0003114,69.9974,211.7054,269.0943,90.986,4.7128e-05,4.69e-06,0.0,0 STARLINK-5863,1 55922U 23037J   23344.78272467  .00000469  00000-0  47128-4 0  9992,2 55922  69.9974 211.7054 0003114 269.0943  90.9860 14.98317808 41018,6950.231,96.108,574.26,569.931,0.0
55922.0,STARLINK-5863,PAYLOAD,2023-12-10 21:59:23,14.98317695,0.0003136,69.9975,211.3687,268.8619,91.2181,4.5448e-05,4.49e-06,0.0,0 STARLINK-5863,1 55922U 23037J   23344.91624576  .00000449  00000-0  45448-4 0  9990,2 55922  69.9975 211.3687 0003136 268.8619  91.2181 14.98317695 40695,6950.231,96.108,574.276,569.916,0.0
55922.0,STARLINK-5863,PAYLOAD,2023-12-11 01:11:39,14.98321784,0.0003064,69.9978,211.0323,270.1356,89.9452,8.3421e-05,9.02e-06,0.0,0 STARLINK-5863,1 55922U 23037J   23345.04976324  .00000902  00000-0  83421-4 0  9993,2 55922  69.9978 211.0323 0003064 270.1356  89.9452 14.98321784 40718,6950.218,96.108,574.213,569.954,0.0
55922.0,STARLINK-5863,PAYLOAD,2023-12-11 20:25:16,14.98326253,0.0003034,69.9978,209.0129,264.3445,95.7368,9.4619e-05,1.036e-05,0.0,0 STARLINK-5863,1 55922U 23037J   23345.85088293  .00001036  00000-0  94619-4 0  9991,2 55922  69.9978 209.0129 0003034 264.3445  95.7368 14.98326253 41178,6950.204,96.107,574.178,569.961,0.0
55922.0,STARLINK-5863,PAYLOAD,2023-12-11 22:01:24,14.98326819,0.0003009,69.9978,208.8447,263.3797,96.702,9.7919e-05,1.075e-05,0.0,0 STARLINK-5863,1 55922U 23037J   23345.91764252  .00001075  00000-0  97919-4 0  9993,2 55922  69.9978 208.8447 0003009 263.3797  96.7020 14.98326819 40846,6950.203,96.107,574.159,569.976,0.0
55922.0,STARLINK-5863,PAYLOAD,2023-12-12 01:13:40,14.98328606,0.0002979,69.9979,208.5084,262.9251,97.157,0.00011201,1.244e-05,0.0,0 STARLINK-5863,1 55922U 23037J   23346.05116114  .00001244  00000-0  11201-3 0  9994,2 55922  69.9979 208.5084 0002979 262.9251  97.1570 14.98328606 40869,6950.197,96.107,574.133,569.992,0.0
